STARLINK-34101          
1 63812U 25092J   25144.91668981 -.01714898  00000+0 -24550-1 0  9998
2 63812  43.0001   7.2823 0001340 283.2585 149.2246 15.58368885  4327
STARLINK-34065          
1 63813U 25092K   25145.08335648  .00128666  00000+0  12069-2 0  9991
2 63813  43.0003   6.2104 0001555 267.9931  55.1168 15.66032378  4370
STARLINK-34057          
1 63814U 25092L   25144.91668981 -.01716448  00000+0 -24575-1 0  9990
2 63814  43.0001   7.2726 0001366 283.2544 153.0635 15.58368406  4430
STARLINK-34060          
1 63815U 25092M   25144.91668981 -.01714337  00000+0 -24542-1 0  9990
2 63815  43.0001   7.2675 0001224 282.6824 155.5514 15.58368898  4327
STARLINK-34048          
1 63816U 25092N   25144.91668981 -.01721130  00000+0 -24646-1 0  9995
2 63816  43.0000   7.2624 0001308 281.8422 158.3064 15.58373093  4480
STARLINK-33959          
1 63817U 25092P   25144.91668981 -.01712362  00000+0 -24511-1 0  9994
2 63817  43.0001   7.2579 0001292 284.0143 158.0538 15.58367676  4481
STARLINK-34058          
1 63818U 25092Q   25144.91668981 -.01713174  00000+0 -24524-1 0  9991
2 63818  43.0000   7.2527 0001164 277.7688 166.2157 15.58368798  4489
STARLINK-34055          
1 63819U 25092R   25144.91668981 -.01925779  00000+0 -23705-1 0  9998
2 63819  43.0005   6.8864 0001338 269.2442 322.5273 15.62628860  4436
STARLINK-33794          
1 63820U 25092S   25144.91668981 -.01720301  00000+0 -24634-1 0  9996
2 63820  43.0000   7.2433 0001223 281.2079 166.6093 15.58372509  4431
STARLINK-34047          
1 63821U 25092T   25144.91668981 -.01719995  00000+0 -24630-1 0  9990
2 63821  43.0000   7.2392 0001327 284.9079 164.8285 15.58370623  4484
STARLINK-34094          
1 63822U 25092U   25145.16668981  .00106554  00000+0  88497-3 0  9990
2 63822  43.0005   5.5963 0001972 281.5648 198.1232 15.69102561  4495
STARLINK-34043          
1 63823U 25092V   25144.91668981  .00065902  00000+0  55191-3 0  9999
2 63823  43.0004   7.0950 0002041 266.3039 241.7396 15.69081344  4436
STARLINK-34025          
1 63824U 25092W   25144.91668981 -.01714135  00000+0 -24540-1 0  9994
2 63824  43.0001   7.2244 0001195 283.0958 172.3933 15.58367841  4373
STARLINK-33874          
1 63825U 25092X   25144.91668981 -.01679844  00000+0 -24023-1 0  9998
2 63825  42.9998   7.2191 0001364 268.8208 188.6104 15.58333642  4489
STARLINK-33781          
1 63826U 25092Y   25144.91668981 -.01717688  00000+0 -24594-1 0  9991
2 63826  43.0001   7.2146 0001213 281.0146 178.3057 15.58370681  4485
STARLINK-33891          
1 63827U 25092Z   25144.91668981 -.01720902  00000+0 -24645-1 0  9992
2 63827  43.0002   7.2101 0001318 283.6349 177.6056 15.58370188  4378
STARLINK-33903          
1 63828U 25092AA  25144.91668981 -.01720865  00000+0 -24644-1 0  9990
2 63828  43.0001   7.2044 0001191 280.9733 182.1820 15.58371763  4482
STARLINK-33889          
1 63829U 25092AB  25144.91668981 -.01720327  00000+0 -24636-1 0  9995
2 63829  43.0000   7.1897 0001185 281.1383 187.7686 15.58371165  4380
STARLINK-33984          
1 63830U 25092AC  25144.91668981 -.01714057  00000+0 -24538-1 0  9991
2 63830  43.0001   7.1994 0001158 283.3249 181.7475 15.58368979  4431
STARLINK-33940          
1 63831U 25092AD  25144.91668981 -.01720055  00000+0 -24631-1 0  9991
2 63831  43.0000   7.1847 0001371 285.1895 185.6350 15.58370165  4482
STARLINK-33978          
1 63832U 25092AE  25144.91668981 -.01720180  00000+0 -24633-1 0  9993
2 63832  42.9996   7.1937 0001230 282.2525 184.7366 15.58371440  4481
HERMES-5                
1 63834U 25052BQ  25144.94462091  .00004576  00000+0  22818-3 0  9994
2 63834  97.4449  39.0674 0007656  74.1939 286.0139 15.18006693 10862
STARLINK-34018          
1 63836U 25093A   25145.16668981 -.01588490  00000+0 -27644-1 0  9997
2 63836  42.9999 271.2572 0001352 256.9224   7.5346 15.52907998  3796
STARLINK-34053          
1 63837U 25093B   25145.16668981 -.01590404  00000+0 -27680-1 0  9996
2 63837  42.9999 271.2525 0001391 255.5362  10.8386 15.52908590  3730
STARLINK-34042          
1 63838U 25093C   25145.16668981 -.01590547  00000+0 -27684-1 0  9999
2 63838  42.9998 271.2471 0001243 256.1814  12.1100 15.52908595  3807
STARLINK-34040          
1 63839U 25093D   25145.16668981 -.01587881  00000+0 -27633-1 0  9991
2 63839  42.9998 271.2423 0001361 255.8871  14.3216 15.52907188  3792
STARLINK-33990          
1 63840U 25093E   25145.16668981 -.01589995  00000+0 -27671-1 0  9993
2 63840  42.9999 271.2378 0001562 261.6536  10.4726 15.52908215  3571
STARLINK-34056          
1 63841U 25093F   25145.16668981 -.01590450  00000+0 -27679-1 0  9990
2 63841  42.9999 271.2328 0001558 261.3961  12.6463 15.52909020  3578
STARLINK-34026          
1 63842U 25093G   25145.16668981 -.01593138  00000+0 -27729-1 0  9993
2 63842  42.9998 271.2281 0001591 256.6640  19.2951 15.52910578  3579
STARLINK-33777          
1 63843U 25093H   25145.08335648 -.01625146  00000+0 -28036-1 0  9993
2 63843  42.9999 271.7130 0001161 264.7466 266.6485 15.53216861  3786
STARLINK-34041          
1 63844U 25093J   25145.08335648 -.01625312  00000+0 -28038-1 0  9991
2 63844  42.9999 271.7076 0001258 268.5932 264.7188 15.53217194  3782
STARLINK-34011          
1 63845U 25093K   25145.08335648 -.01626988  00000+0 -28071-1 0  9999
2 63845  43.0000 271.7039 0001089 265.5072 269.7218 15.53217786  3563
STARLINK-34044          
1 63846U 25093L   25145.08335648 -.01626602  00000+0 -28063-1 0  9994
2 63846  43.0000 271.6983 0001234 261.4950 275.6522 15.53217142  3563
STARLINK-34037          
1 63847U 25093M   25145.08335648 -.01625251  00000+0 -28038-1 0  9996
2 63847  42.9999 271.6939 0001162 265.1504 273.9130 15.53216861  3783
STARLINK-34010          
1 63848U 25093N   25145.08335648 -.01627239  00000+0 -28075-1 0  9996
2 63848  42.9999 271.6888 0001143 265.7077 275.2725 15.53218117  3564
STARLINK-34009          
1 63849U 25093P   25145.08335648 -.01626665  00000+0 -28065-1 0  9998
2 63849  42.9999 271.6840 0001123 262.9661 279.9317 15.53217304  3788
STARLINK-33958          
1 63850U 25093Q   25145.08335648 -.01624589  00000+0 -28026-1 0  9990
2 63850  43.0000 271.6787 0001183 263.4009 281.4144 15.53216019  3624
STARLINK-33776          
1 63851U 25093R   25145.08335648 -.01624557  00000+0 -28026-1 0  9996
2 63851  42.9999 271.6742 0001163 268.4966 278.2367 15.53215580  3775
STARLINK-34032          
1 63853U 25093T   25145.08335648 -.01741918  00000+0 -26408-1 0  9991
2 63853  43.0000 271.1442 0001320 266.5153 132.4968 15.56906898  3787
STARLINK-34015          
1 63854U 25093U   25145.08335648 -.01745937  00000+0 -26472-1 0  9998
2 63854  43.0000 271.1401 0001371 264.7480 136.1786 15.56910681  3629
STARLINK-33969          
1 63855U 25093V   25145.08335648 -.01745567  00000+0 -26467-1 0  9992
2 63855  43.0000 271.1352 0001333 266.3923 136.4528 15.56909751  3569
STARLINK-34002          
1 63856U 25093W   25145.08335648 -.01748484  00000+0 -26514-1 0  9997
2 63856  43.0000 271.1297 0001417 265.3933 139.3687 15.56911503  3567
STARLINK-33999          
1 63857U 25093X   25145.08335648 -.01751208  00000+0 -26559-1 0  9995
2 63857  43.0001 271.1215 0001397 265.0926 143.5035 15.56912977  3789
STARLINK-33976          
1 63858U 25093Y   25145.08335648 -.01745560  00000+0 -26468-1 0  9999
2 63858  43.0000 271.1252 0001375 268.0481 138.6338 15.56908233  3629
STARLINK-33821          
1 63859U 25093Z   25145.08335648 -.01981983  00000+0 -35346-1 0  9996
2 63859  43.0000 270.6712 0001179 265.0807 320.2292 15.52420456  3783
STARLINK-33888          
1 63860U 25093AA  25145.08335648 -.01742432  00000+0 -26416-1 0  9990
2 63860  43.0001 271.1162 0001330 268.2332 142.2812 15.56907532  3787
STARLINK-33896          
1 63861U 25093AB  25145.08335648 -.01748004  00000+0 -26507-1 0  9993
2 63861  43.0001 271.1103 0001336 269.4162 143.0151 15.56911112  3563
STARLINK-33878          
1 63862U 25093AC  25145.08335648 -.02028127  00000+0 -34344-1 0  9990
2 63862  42.9997 270.5680 0001433 265.1719   1.2484 15.53905263  3794
STARLINK-33954          
1 63863U 25093AD  25145.08335648 -.01751012  00000+0 -26554-1 0  9990
2 63863  43.0001 271.1056 0001524 270.9306 143.4169 15.56913452  3560
STARLINK-33863          
1 63864U 25094A   25145.08335648 -.00712674  00000+0 -55523-2 0  9991
2 63864  69.9989 265.4759 0003579 275.1893 353.6488 15.73442962  3582
STARLINK-33897          
1 63865U 25094B   25145.08335648 -.00658664  00000+0 -51185-2 0  9990
2 63865  69.9989 265.4734 0003389 279.1264 351.7024 15.73356309  3484
STARLINK-34022          
1 63866U 25094C   25145.08335648 -.00463371  00000+0 -35406-2 0  9998
2 63866  69.9988 265.4707 0003590 273.6552 359.1777 15.73214964  3484
STARLINK-33979          
1 63867U 25094D   25145.08335648 -.00274244  00000+0 -20624-2 0  9994
2 63867  69.9992 265.4685 0003468 276.0071 358.8344 15.73066841  3364
STARLINK-34007          
1 63868U 25094E   25145.08335648 -.00121007  00000+0 -89695-3 0  9997
2 63868  69.9990 265.4661 0003725 276.1966   0.6094 15.72960899  3478
STARLINK-34006          
1 63869U 25094F   25145.08335648 -.00005889  00000+0 -41677-4 0  9996
2 63869  69.9990 265.4633 0003275 281.4502 357.3057 15.72873026  3592
STARLINK-33986          
1 63870U 25094G   25145.08335648  .00041432  00000+0  30477-3 0  9995
2 63870  69.9990 265.4611 0003201 270.8920   9.7903 15.72863948  3483
STARLINK-34013          
1 63871U 25094H   25145.08335648  .00093617  00000+0  68350-3 0  9999
2 63871  69.9991 265.4594 0003904 277.7265   4.8739 15.72821654  3383
STARLINK-34059          
1 63872U 25094J   25145.08335648  .00025653  00000+0  18957-3 0  9993
2 63872  69.9993 265.4565 0003808 274.5769   9.9372 15.72873939  3530
STARLINK-33987          
1 63873U 25094K   25145.08335648  .00023513  00000+0  17393-3 0  9990
2 63873  69.9994 265.4540 0003634 272.3960  14.0329 15.72876026  3596
